1 26360U 00025A   18261.54075108 -.00000033  00000-0  00000+0 0  9998
2 26360  53.2278 135.7721 0040860 122.1800  53.5074  2.00563178134536
1 26360U 00025A   18261.69905464 -.00000031  00000-0  00000-0 0  9990
2 26360  53.2278 135.7655 0040864 122.1887 167.8028  2.00563179134530
1 26360U 00025A   18262.57836519 -.00000022  00000-0  00000-0 0  9992
2 26360  53.2281 135.7288 0040904 122.2417  82.6614  2.00563197134558
1 26360U 00025A   18262.71362652 -.00000020  00000-0  00000-0 0  9998
2 26360  53.2282 135.7231 0040908 122.2456 180.3237  2.00563196134550
1 26360U 00025A   18263.61823130 -.00000008  00000-0  00000-0 0  9997
2 26360  53.2285 135.6854 0040949 122.2984 113.4463  2.00563203134573
1 26360U 00025A   18264.66924650  .00000006  00000-0  00000-0 0  9999
2 26360  53.2289 135.6415 0040997 122.3540 152.2825  2.00563196134598
1 26360U 00025A   18265.57218968  .00000016  00000-0  00000-0 0  9999
2 26360  53.2292 135.6038 0041040 122.4059  84.2061  2.00563185134616
1 26360U 00025A   18265.68306713  .00000018  00000-0  00000-0 0  9999
2 26360  53.2292 135.5992 0041044 122.4089 164.2629  2.00563183134618
1 26360U 00025A   18266.49922429  .00000026  00000-0  00000-0 0  9996
2 26360  53.2295 135.5651 0041081 122.4575  33.5252  2.00563159134639
1 26360U 00025A   18266.69513569  .00000027  00000-0  00000-0 0  9990
2 26360  53.2296 135.5570 0041087 122.4651 174.9767  2.00563159134632
1 26360U 00025A   18267.09805347  .00000030  00000-0  00000-0 0  9997
2 26360  53.2297 135.5401 0041104 122.4907 105.8803  2.00563152134648
1 26360U 00025A   18268.03729809  .00000035  00000-0  00000-0 0  9995
2 26360  53.2301 135.5010 0041142 122.5439  64.0141  2.00563125134666
1 26360U 00025A   18269.27722969  .00000037  00000-0  00000+0 0  9993
2 26360  53.2305 135.4492 0041189 122.6068 239.2511  2.00563086134688
1 26360U 00025A   18269.27722969  .00000037  00000-0  00000-0 0  9994
2 26360  53.2305 135.4492 0041189 122.6068 239.2511  2.00563086134688
1 26360U 00025A   18271.51963762  .00000030  00000-0  00000+0 0  9994
2 26360  53.2313 135.3556 0041270 122.7245  58.2775  2.00563041134734
1 26360U 00025A   18273.02541495  .00000023  00000-0  00000+0 0  9999
2 26360  53.2319 135.2927 0041330 122.8009  65.4568  2.00563022134769
1 26360U 00025A   18274.00882910  .00000019  00000-0  00000+0 0  9993
2 26360  53.2323 135.2517 0041372 122.8535  55.4840  2.00562999134785
1 26360U 00025A   18276.00645608  .00000020  00000-0  00000+0 0  9998
2 26360  53.2331 135.1683 0041455 122.9664  57.7693  2.00562979134827
1 26360U 00025A   18279.19297016  .00000039  00000-0  00000+0 0  9997
2 26360  53.2344 135.0352 0041559 123.1599 198.4171  2.00562988134888
1 26360U 00025A   18279.66656932  .00000041  00000-0  00000-0 0  9999
2 26360  53.2346 135.0155 0041573 123.1877 180.3545  2.00562994134899
1 26360U 00025A   18280.67922713  .00000042  00000-0  00000+0 0  9995
2 26360  53.2350 134.9732 0041611 123.2490 191.4886  2.00563008134919
1 26360U 00025A   18280.67922713  .00000042  00000-0  00000-0 0  9996
2 26360  53.2350 134.9732 0041611 123.2490 191.4886  2.00563008134919
1 26360U 00025A   18282.16220779  .00000035  00000-0  00000+0 0  9996
2 26360  53.2356 134.9112 0041645 123.3386 182.1938  2.00563029134940
1 26360U 00025A   18282.63470712  .00000031  00000-0  00000-0 0  9999
2 26360  53.2358 134.8915 0041663 123.3675 163.3359  2.00563039134953
1 26360U 00025A   18283.10350111  .00000027  00000-0  00000+0 0  9996
2 26360  53.2360 134.8719 0041687 123.3970 141.8018  2.00563050134969
1 26360U 00025A   18283.65136789  .00000021  00000-0  00000+0 0  9993
2 26360  53.2362 134.8490 0041706 123.4322 177.3571  2.00563065134976
1 26360U 00025A   18283.65136789  .00000021  00000-0  00000-0 0  9994
2 26360  53.2362 134.8490 0041706 123.4322 177.3571  2.00563065134976
1 26360U 00025A   18284.48643046  .00000013  00000-0  00000-0 0  9996
2 26360  53.2365 134.8142 0041758 123.4858  60.2653  2.00563086134990
1 26360U 00025A   18284.66116340  .00000011  00000-0  00000-0 0  9996
2 26360  53.2366 134.8069 0041761 123.4987 186.4195  2.00563091134994
1 26360U 00025A   18285.13448894  .00000007  00000-0  00000+0 0  9995
2 26360  53.2367 134.7871 0041787 123.5321 168.1537  2.00563108135005
1 26360U 00025A   18285.67793010  .00000003  00000-0  00000-0 0  9994
2 26360  53.2370 134.7644 0041796 123.5610 200.5199  2.00563124135012
1 26360U 00025A   18286.14884558  .00000001  00000-0  00000+0 0  9992
2 26360  53.2371 134.7448 0041813 123.5938 180.5145  2.00563135135029
1 26360U 00025A   18286.47966185 -.00000000  00000-0  00000-0 0  9996
2 26360  53.2373 134.7309 0041833 123.6151  59.3610  2.00563144135038
1 26360U 00025A   18286.69241314 -.00000001  00000-0  00000-0 0  9991
2 26360  53.2374 134.7220 0041842 123.6326 212.9620  2.00563149135038
1 26360U 00025A   18287.15574087 -.00000001  00000-0  00000+0 0  9998
2 26360  53.2376 134.7027 0041859 123.6656 187.4776  2.00563160135041
1 26360U 00025A   18287.15574087 -.00000001  00000-0  00000-0 0  9999
2 26360  53.2376 134.7027 0041859 123.6656 187.4776  2.00563160135041
1 26360U 00025A   18288.64959110  .00000006  00000-0  00000+0 0  9991
2 26360  53.2382 134.6404 0041887 123.7404 186.0463  2.00563187135079
1 26360U 00025A   18289.46710861  .00000014  00000-0  00000+0 0  9999
2 26360  53.2385 134.6062 0041923 123.7879  56.2922  2.00563198135080
1 26360U 00025A   18289.57665878  .00000015  00000-0  00000-0 0  9990
2 26360  53.2385 134.6017 0041961 123.8177 135.3640  2.00563209135094
1 26360U 00025A   18290.13405668  .00000022  00000-0  00000+0 0  9990
2 26360  53.2388 134.5784 0041980 123.8561 177.7981  2.00563217135104
1 26360U 00025A   18291.68996997  .00000042  00000-0  00000+0 0  9993
2 26360  53.2394 134.5135 0042007 123.9400 221.1710  2.00563225135131
1 26360U 00025A   18291.68996997  .00000042  00000-0  00000-0 0  9994
2 26360  53.2394 134.5135 0042007 123.9400 221.1710  2.00563225135131
1 26360U 00025A   18292.70389383  .00000055  00000-0  00000-0 0  9997
2 26360  53.2398 134.4712 0042035 123.9959 233.2249  2.00563215135157
1 26360U 00025A   18293.49458361  .00000063  00000-0  00000+0 0  9995
2 26360  53.2402 134.4382 0042077 124.0422  84.1011  2.00563207135161
1 26360U 00025A   18293.64910726  .00000064  00000-0  00000-0 0  9992
2 26360  53.2402 134.4317 0042087 124.0606 195.6575  2.00563210135172
1 26360U 00025A   18294.10703149  .00000068  00000-0  00000+0 0  9996
2 26360  53.2404 134.4127 0042108 124.0992 166.2659  2.00563202135184
1 26360U 00025A   18294.10703149  .00000068  00000-0  00000-0 0  9997
2 26360  53.2404 134.4127 0042108 124.0992 166.2659  2.00563202135184
1 26360U 00025A   18295.13205238  .00000073  00000-0  00000+0 0  9992
2 26360  53.2408 134.3699 0042143 124.1682 186.3194  2.00563183135205
1 26360U 00025A   18295.57364953  .00000075  00000-0  00000-0 0  9993
2 26360  53.2410 134.3515 0042160 124.2055 145.1400  2.00563175135214
1 26360U 00025A   18296.19735057  .00000076  00000-0  00000+0 0  9999
2 26360  53.2413 134.3255 0042167 124.2394 235.4534  2.00563165135222
1 26360U 00025A   18296.68724086  .00000076  00000-0  00000-0 0  9994
2 26360  53.2415 134.3050 0042171 124.2647 229.1564  2.00563154135235
1 26360U 00025A   18297.15717677  .00000075  00000-0  00000+0 0  9993
2 26360  53.2417 134.2854 0042184 124.2993 208.4417  2.00563142135241
1 26360U 00025A   18298.44087608  .00000070  00000-0  00000+0 0  9995
2 26360  53.2422 134.2319 0042221 124.3805  55.2632  2.00563109135260
1 26360U 00025A   18299.11775406  .00000067  00000-0  00000+0 0  9996
2 26360  53.2425 134.2036 0042242 124.4198 183.9678  2.00563094135282
1 26360U 00025A   18299.65986552  .00000064  00000-0  00000+0 0  9998
2 26360  53.2427 134.1810 0042256 124.4504 215.3721  2.00563082135296
1 26360U 00025A   18299.65986552  .00000064  00000-0  00000-0 0  9999
2 26360  53.2427 134.1810 0042256 124.4504 215.3721  2.00563082135296
1 26360U 00025A   18300.67594060  .00000059  00000-0  00000-0 0  9997
2 26360  53.2432 134.1386 0042275 124.5023 228.9833  2.00563061135312
1 26360U 00025A   18301.14271354  .00000057  00000-0  00000+0 0  9995
2 26360  53.2434 134.1191 0042302 124.5363 205.9856  2.00563058135323
1 26360U 00025A   18301.14271354  .00000057  00000-0  00000-0 0  9996
2 26360  53.2434 134.1191 0042302 124.5363 205.9856  2.00563058135323
1 26360U 00025A   18301.62480861  .00000056  00000-0  00000-0 0  9993
2 26360  53.2436 134.0990 0042320 124.5713 194.0501  2.00563049135336
1 26360U 00025A   18302.15834059  .00000055  00000-0  00000+0 0  9992
2 26360  53.2439 134.0767 0042329 124.5991 219.2623  2.00563042135347
1 26360U 00025A   18302.92761851  .00000056  00000-0  00000+0 0  9997
2 26360  53.2442 134.0446 0042349 124.6456  54.6773  2.00563028135356
1 26360U 00025A   18304.18243913  .00000061  00000-0  00000+0 0  9997
2 26360  53.2448 133.9922 0042382 124.7281 240.6453  2.00563010135389
1 26360U 00025A   18305.17096382  .00000066  00000-0  00000+0 0  9998
2 26360  53.2452 133.9510 0042401 124.7912 234.3525  2.00563018135401
1 26360U 00025A   18307.41442514  .00000075  00000-0  00000+0 0  9999
2 26360  53.2462 133.8574 0042467 124.9540  54.0940  2.00563032135440
1 26360U 00025A   18308.64570958  .00000071  00000-0  00000+0 0  9995
2 26360  53.2467 133.8060 0042476 125.0221 223.0824  2.00563055135470
1 26360U 00025A   18308.64570958  .00000071  00000-0  00000-0 0  9996
2 26360  53.2467 133.8060 0042476 125.0221 223.0824  2.00563055135470
1 26360U 00025A   18309.66146823  .00000064  00000-0  00000-0 0  9991
2 26360  53.2471 133.7636 0042481 125.0693 236.4698  2.00563070135500
1 26360U 00025A   18310.44825590  .00000056  00000-0  00000+0 0  9994
2 26360  53.2475 133.7308 0042537 125.1514  84.4927  2.00563096135509
1 26360U 00025A   18310.91658394  .00000050  00000-0  00000+0 0  9996
2 26360  53.2476 133.7112 0042556 125.1912  62.6119  2.00563105135519
